{"type": "FeatureCollection", "features": [ {"type": "Feature", "properties": {"norad_id": 66545, "name": "SHIJIAN-30A", "group": "last-30-days", "lat": 18.026215508847052, "lon": -29.68974780666775, "alt_km": 508.8031474346353, "timestamp": "2025-12-16T10:53:44.204774+00:00", "meta": {"OBJECT_NAME": "SHIJIAN-30A", "OBJECT_ID": "2025-266A", "EPOCH": "2025-12-15T22:07:59.092608", "MEAN_MOTION": 15.15523423, "ECCENTRICITY": 0.00129552, "INCLINATION": 51.7985, "RA_OF_ASC_NODE": 317.9531, "ARG_OF_PERICENTER": 7.8645, "MEAN_ANOMALY": 352.2532, "EPHEMERIS_TYPE": 0, "CLASSIFICATION_TYPE": "U", "NORAD_CAT_ID": 66545, "ELEMENT_SET_NO": 999, "REV_AT_EPOCH": 406, "BSTAR": 0.00049503684, "MEAN_MOTION_DOT": 9.217e-05, "MEAN_MOTION_DDOT": 0}, "tle": {"line1": "1 66545U 25266A   25349.92221172  .00009217  00000+0  49504-3 0  9999", "line2": "2 66545  51.7985 317.9531 0012955   7.8645 352.2532 15.15523423  4067"}}, "geometry": {"type": "Point", "coordinates": [-29.68974780666775, 18.026215508847052]}}, {"type": "Feature", "properties": {"norad_id": 66546, "name": "SHIJIAN-30B", "group": "last-30-days", "lat": 12.964417018995952, "lon": -34.08365502265386, "alt_km": 510.98312055730185, "timestamp": "2025-12-16T10:53:44.204785+00:00", "meta": {"OBJECT_NAME": "SHIJIAN-30B", "OBJECT_ID": "2025-266B", "EPOCH": "2025-12-15T22:09:42.453792", "MEAN_MOTION": 15.15499199, "ECCENTRICITY": 0.00106876, "INCLINATION": 51.7968, "RA_OF_ASC_NODE": 317.9569, "ARG_OF_PERICENTER": 11.2109, "MEAN_ANOMALY": 348.9103, "EPHEMERIS_TYPE": 0, "CLASSIFICATION_TYPE": "U", "NORAD_CAT_ID": 66546, "ELEMENT_SET_NO": 999, "REV_AT_EPOCH": 406, "BSTAR": 0.00056304427, "MEAN_MOTION_DOT": 0.00010515, "MEAN_MOTION_DDOT": 0}, "tle": {"line1": "1 66546U 25266B   25349.92340803  .00010515  00000+0  56304-3 0  9992", "line2": "2 66546  51.7968 317.9569 0010687  11.2109 348.9103 15.15499199  4062"}}, "geometry": {"type": "Point", "coordinates": [-34.08365502265386, 12.964417018995952]}}, {"type": "Feature", "properties": {"norad_id": 66547, "name": "SHIJIAN-30C", "group": "last-30-days", "lat": 10.70912261931883, "lon": -35.956492342076594, "alt_km": 510.98404781869704, "timestamp": "2025-12-16T10:53:44.204796+00:00", "meta": {"OBJECT_NAME": "SHIJIAN-30C", "OBJECT_ID": "2025-266C", "EPOCH": "2025-12-15T22:10:26.784768", "MEAN_MOTION": 15.15445439, "ECCENTRICITY": 0.00115408, "INCLINATION": 51.7979, "RA_OF_ASC_NODE": 317.9621, "ARG_OF_PERICENTER": 2.9011, "MEAN_ANOMALY": 357.203, "EPHEMERIS_TYPE": 0, "CLASSIFICATION_TYPE": "U", "NORAD_CAT_ID": 66547, "ELEMENT_SET_NO": 999, "REV_AT_EPOCH": 406, "BSTAR": 0.00050021352, "MEAN_MOTION_DOT": 9.293e-05, "MEAN_MOTION_DDOT": 0}, "tle": {"line1": "1 66547U 25266C   25349.92392112  .00009293  00000+0  50021-3 0  9994", "line2": "2 66547  51.7979 317.9621 0011540   2.9011 357.2030 15.15445439  4062"}}, "geometry": {"type": "Point", "coordinates": [-35.956492342076594, 10.70912261931883]}}, {"type": "Feature", "properties": {"norad_id": 66548, "name": "CZ-2C R/B", "group": "last-30-days", "lat": -3.9628554834506513, "lon": -49.516513862351815, "alt_km": 532.6956768058435, "timestamp": "2025-12-16T10:53:44.204806+00:00", "meta": {"OBJECT_NAME": "CZ-2C R/B", "OBJECT_ID": "2025-266D", "EPOCH": "2025-12-15T22:22:44.003136", "MEAN_MOTION": 15.30247578, "ECCENTRICITY": 0.00837773, "INCLINATION": 52.0544, "RA_OF_ASC_NODE": 316.0681, "ARG_OF_PERICENTER": 184.0842, "MEAN_ANOMALY": 175.947, "EPHEMERIS_TYPE": 0, "CLASSIFICATION_TYPE": "U", "NORAD_CAT_ID": 66548, "ELEMENT_SET_NO": 999, "REV_AT_EPOCH": 410, "BSTAR": 0.00026490742, "MEAN_MOTION_DOT": 8.357e-05, "MEAN_MOTION_DDOT": 0}, "tle": {"line1": "1 66548U 25266D   25349.93245374  .00008357  00000+0  26491-3 0  9997", "line2": "2 66548  52.0544 316.0681 0083777 184.0842 175.9470 15.30247578  4105"}}, "geometry": {"type": "Point", "coordinates": [-49.516513862351815, -3.9628554834506513]}}, {"type": "Feature", "properties": {"norad_id": 66549, "name": "SHIJIAN-28", "group": "last-30-days", "lat": 5.024395695249983, "lon": 5.598779506741865, "alt_km": 35782.96359606825, "timestamp": "2025-12-16T10:53:44.204821+00:00", "meta": {"OBJECT_NAME": "SHIJIAN-28", "OBJECT_ID": "2025-277A", "EPOCH": "2025-12-15T23:02:20.004864", "MEAN_MOTION": 1.00270828, "ECCENTRICITY": 9.378e-05, "INCLINATION": 5.0105, "RA_OF_ASC_NODE": 274.906, "ARG_OF_PERICENTER": 135.1892, "MEAN_ANOMALY": 137.198, "EPHEMERIS_TYPE": 0, "CLASSIFICATION_TYPE": "U", "NORAD_CAT_ID": 66549, "ELEMENT_SET_NO": 999, "REV_AT_EPOCH": 31, "BSTAR": 0, "MEAN_MOTION_DOT": -3.34e-06, "MEAN_MOTION_DDOT": 0}, "tle": {"line1": "1 66549U 25277A   25349.95995376 -.00000334  00000+0  00000+0 0  9998", "line2": "2 66549   5.0105 274.9060 0000937 135.1892 137.1980  1.00270828   310"}}, "geometry": {"type": "Point", "coordinates": [5.598779506741865, 5.024395695249983]}}, {"type": "Feature", "properties": {"norad_id": 66550, "name": "CZ-7A R/B", "group": "last-30-days", "lat": 14.37888543642555, "lon": 1.2627368320633765, "alt_km": 6035.118856134891, "timestamp": "2025-12-16T10:53:44.204834+00:00", "meta": {"OBJECT_NAME": "CZ-7A R/B", "OBJECT_ID": "2025-277B", "EPOCH": "2025-12-12T23:59:46.063680", "MEAN_MOTION": 2.69999213, "ECCENTRICITY": 0.70164962, "INCLINATION": 14.3833, "RA_OF_ASC_NODE": 269.7494, "ARG_OF_PERICENTER": 189.2871, "MEAN_ANOMALY": 143.2042, "EPHEMERIS_TYPE": 0, "CLASSIFICATION_TYPE": "U", "NORAD_CAT_ID": 66550, "ELEMENT_SET_NO": 999, "REV_AT_EPOCH": 35, "BSTAR": 0.0022608485, "MEAN_MOTION_DOT": 0.01807848, "MEAN_MOTION_DDOT": -2.55676e-07}, "tle": {"line1": "1 66550U 25277B   25346.99983870  .01807848 -25568-6  22608-2 0  9997", "line2": "2 66550  14.3833 269.7494 7016496 189.2871 143.2042  2.69999213   350"}}, "geometry": {"type": "Point", "coordinates": [1.2627368320633765, 14.37888543642555]}}, {"type": "Feature", "properties": {"norad_id": 66554, "name": "GLOBAL-33", "group": "last-30-days", "lat": 28.240346719282414, "lon": 72.1696894495578, "alt_km": 464.6317059080957, "timestamp": "2025-12-16T10:53:44.204853+00:00", "meta": {"OBJECT_NAME": "GLOBAL-33", "OBJECT_ID": "2025-267A", "EPOCH": "2025-12-15T20:36:53.666208", "MEAN_MOTION": 15.31616377, "ECCENTRICITY": 0.00037341, "INCLINATION": 42.0214, "RA_OF_ASC_NODE": 38.9876, "ARG_OF_PERICENTER": 88.3433, "MEAN_ANOMALY": 271.7833, "EPHEMERIS_TYPE": 0, "CLASSIFICATION_TYPE": "U", "NORAD_CAT_ID": 66554, "ELEMENT_SET_NO": 999, "REV_AT_EPOCH": 388, "BSTAR": 0.00031965408, "MEAN_MOTION_DOT": 9.732e-05, "MEAN_MOTION_DDOT": 0}, "tle": {"line1": "1 66554U 25267A   25349.85895447  .00009732  00000+0  31965-3 0  9998", "line2": "2 66554  42.0214  38.9876 0003734  88.3433 271.7833 15.31616377  3888"}}, "geometry": {"type": "Point", "coordinates": [72.1696894495578, 28.240346719282414]}}, {"type": "Feature", "properties": {"norad_id": 66555, "name": "ELECTRON KICK STAGE R/B", "group": "last-30-days", "lat": 31.787521235043457, "lon": 171.85496803429572, "alt_km": 458.54237073167405, "timestamp": "2025-12-16T10:53:44.204865+00:00", "meta": {"OBJECT_NAME": "ELECTRON KICK STAGE R/B", "OBJECT_ID": "2025-267B", "EPOCH": "2025-12-15T20:16:03.858240", "MEAN_MOTION": 15.3296911, "ECCENTRICITY": 0.00065691, "INCLINATION": 42.02, "RA_OF_ASC_NODE": 38.8761, "ARG_OF_PERICENTER": 78.9259, "MEAN_ANOMALY": 281.2317, "EPHEMERIS_TYPE": 0, "CLASSIFICATION_TYPE": "U", "NORAD_CAT_ID": 66555, "ELEMENT_SET_NO": 999, "REV_AT_EPOCH": 388, "BSTAR": 0.00060774883, "MEAN_MOTION_DOT": 0.00019586, "MEAN_MOTION_DDOT": 0}, "tle": {"line1": "1 66555U 25267B   25349.84448910  .00019586  00000+0  60775-3 0  9996", "line2": "2 66555  42.0200  38.8761 0006569  78.9259 281.2317 15.32969110  3886"}}, "geometry": {"type": "Point", "coordinates": [171.85496803429572, 31.787521235043457]}}, {"type": "Feature", "properties": {"norad_id": 66557, "name": "STARLINK-35699", "group": "last-30-days", "lat": -15.619069192720966, "lon": 82.01693507252365, "alt_km": 415.64890047311565, "timestamp": "2025-12-16T10:53:44.204876+00:00", "meta": {"OBJECT_NAME": "STARLINK-35699", "OBJECT_ID": "2025-268A", "EPOCH": "2025-12-15T19:32:11.246784", "MEAN_MOTION": 15.50594269, "ECCENTRICITY": 0.000154, "INCLINATION": 42.9999, "RA_OF_ASC_NODE": 103.2197, "ARG_OF_PERICENTER": 283.5816, "MEAN_ANOMALY": 76.4873, "EPHEMERIS_TYPE": 0, "CLASSIFICATION_TYPE": "U", "NORAD_CAT_ID": 66557, "ELEMENT_SET_NO": 999, "REV_AT_EPOCH": 510, "BSTAR": 0.00095715171, "MEAN_MOTION_DOT": 0.00056245, "MEAN_MOTION_DDOT": 0}, "tle": {"line1": "1 66557U 25268A   25349.81401906  .00056245  00000+0  95715-3 0  9995", "line2": "2 66557  42.9999 103.2197 0001540 283.5816  76.4873 15.50594269  5106"}}, "geometry": {"type": "Point", "coordinates": [82.01693507252365, -15.619069192720966]}}, {"type": "Feature", "properties": {"norad_id": 66558, "name": "STARLINK-35695", "group": "last-30-days", "lat": -14.29663492977127, "lon": 83.59574338384236, "alt_km": 414.80664010690725, "timestamp": "2025-12-16T10:53:44.204889+00:00", "meta": {"OBJECT_NAME": "STARLINK-35695", "OBJECT_ID": "2025-268B", "EPOCH": "2025-12-15T16:26:10.303872", "MEAN_MOTION": 15.5060751, "ECCENTRICITY": 0.00038316, "INCLINATION": 42.9942, "RA_OF_ASC_NODE": 103.9709, "ARG_OF_PERICENTER": 274.162, "MEAN_ANOMALY": 85.8802, "EPHEMERIS_TYPE": 0, "CLASSIFICATION_TYPE": "U", "NORAD_CAT_ID": 66558, "ELEMENT_SET_NO": 999, "REV_AT_EPOCH": 508, "BSTAR": 0.000948449, "MEAN_MOTION_DOT": 0.00055765, "MEAN_MOTION_DDOT": 0}, "tle": {"line1": "1 66558U 25268B   25349.68484148  .00055765  00000+0  94845-3 0  9999", "line2": "2 66558  42.9942 103.9709 0003831 274.1620  85.8802 15.50607510  5082"}}, "geometry": {"type": "Point", "coordinates": [83.59574338384236, -14.29663492977127]}}]}